[Satellite]
VERSION=1.1
NAME=STARLETTE
NICKNAME=STARLETTE
TLE1=1 07646U 75010A   17186.08756801 -.00000145  00000-0  18504-6 0  9999
TLE2=2 07646  49.8252  47.7038 0205659  63.9299 298.2605 13.82302877142346
